{
  "type": "FeatureCollection",
  "features": [
    {
      "type": "Feature",
      "geometry": {
        "type": "Point",
        "coordinates": [
          31.834217,
          30.79937,
          0
        ]
      },
      "properties": {
        "name": "Rameses",
        "styleUrl": "#landpoint1005",
        "label-opacity": 1,
        "label-color": "#80ff07",
        "label-scale": 3,
        "icon-opacity": 1,
        "icon-color": "#fc0107",
        "icon-scale": 2,
        "icon-offset": [
          32,
          1
        ],
        "icon-offset-units": [
          "pixels",
          "pixels"
        ],
        "icon": "http://maps.google.com/mapfiles/kml/paddle/red-circle.png",
        "kml": {
          "folderIds": [
            "folder-0001"
          ],
          "folderPath": [
            "025_Exodus1_1-1_16"
          ],
          "sourceOrder": 2,
          "visibility": null,
          "initiallyVisible": true
        }
      },
      "id": "feature-0001"
    },
    {
      "type": "Feature",
      "geometry": {
        "type": "Point",
        "coordinates": [
          31.963611,
          30.5475,
          0
        ]
      },
      "properties": {
        "name": "Pithom",
        "styleUrl": "#landpoint100",
        "label-opacity": 1,
        "label-color": "#80ff07",
        "label-scale": 3,
        "icon-opacity": 1,
        "icon-color": "#fc0107",
        "icon-scale": 2,
        "icon-offset": [
          32,
          1
        ],
        "icon-offset-units": [
          "pixels",
          "pixels"
        ],
        "icon": "http://maps.google.com/mapfiles/kml/paddle/red-circle.png",
        "kml": {
          "folderIds": [
            "folder-0001"
          ],
          "folderPath": [
            "025_Exodus1_1-1_16"
          ],
          "sourceOrder": 3,
          "visibility": null,
          "initiallyVisible": true
        }
      },
      "id": "feature-0002"
    },
    {
      "type": "Feature",
      "geometry": {
        "type": "Point",
        "coordinates": [
          31.76607731068698,
          30.62565472203823,
          0
        ]
      },
      "properties": {
        "name": "Goshen",
        "styleUrl": "#landpoint003320014",
        "label-opacity": 1,
        "label-color": "#80ff07",
        "label-scale": 3,
        "icon-opacity": 1,
        "icon-color": "#fc0107",
        "icon-scale": 2,
        "icon-offset": [
          32,
          1
        ],
        "icon-offset-units": [
          "pixels",
          "pixels"
        ],
        "icon": "http://maps.google.com/mapfiles/kml/paddle/red-circle.png",
        "kml": {
          "folderIds": [
            "folder-0001"
          ],
          "folderPath": [
            "025_Exodus1_1-1_16"
          ],
          "sourceOrder": 4,
          "visibility": null,
          "initiallyVisible": true
        }
      },
      "id": "feature-0003"
    },
    {
      "type": "Feature",
      "geometry": {
        "type": "Polygon",
        "coordinates": [
          [
            [
              31.56946,
              30.86821,
              0
            ],
            [
              31.44489,
              30.83224,
              0
            ],
            [
              31.40337,
              30.72432,
              0
            ],
            [
              31.40337,
              30.47251,
              0
            ],
            [
              31.40337,
              30.43654,
              0
            ],
            [
              31.40337,
              30.40057,
              0
            ],
            [
              31.61098,
              30.32862,
              0
            ],
            [
              31.6525,
              30.32862,
              0
            ],
            [
              31.69401999999999,
              30.32862,
              0
            ],
            [
              31.73555,
              30.32862,
              0
            ],
            [
              31.77707,
              30.32862,
              0
            ],
            [
              31.81859,
              30.32862,
              0
            ],
            [
              31.98468,
              30.40057,
              0
            ],
            [
              32.15077,
              30.68835,
              0
            ],
            [
              32.15077,
              30.72432,
              0
            ],
            [
              32.10925,
              30.83224,
              0
            ],
            [
              32.06772,
              30.94015,
              0
            ],
            [
              32.0262,
              30.94015,
              0
            ],
            [
              31.98468,
              30.94015,
              0
            ],
            [
              31.90164,
              30.94015,
              0
            ],
            [
              31.81859,
              30.94015,
              0
            ],
            [
              31.56946,
              30.86821,
              0
            ]
          ]
        ]
      },
      "properties": {
        "name": "Goshen",
        "styleUrl": "#landisobands2252222223",
        "fill-opacity": 0.5019607843137255,
        "fill": "#20ffff",
        "stroke-width": 2,
        "kml": {
          "folderIds": [
            "folder-0001"
          ],
          "folderPath": [
            "025_Exodus1_1-1_16"
          ],
          "sourceOrder": 5,
          "visibility": null,
          "initiallyVisible": true
        }
      },
      "id": "feature-0004"
    }
  ],
  "layerTree": {
    "schemaVersion": 1,
    "root": {
      "type": "root",
      "id": "root",
      "name": "025_Exodus1_1-1_16.kmz",
      "sourceOrder": 0,
      "visibility": null,
      "initiallyVisible": true,
      "open": null,
      "children": [
        {
          "type": "folder",
          "id": "folder-0001",
          "name": "025_Exodus1_1-1_16",
          "sourceOrder": 1,
          "visibility": null,
          "initiallyVisible": true,
          "open": null,
          "children": [
            {
              "type": "feature",
              "id": "feature-0001",
              "name": "Rameses",
              "sourceOrder": 2,
              "visibility": null,
              "initiallyVisible": true,
              "geometryType": "Point"
            },
            {
              "type": "feature",
              "id": "feature-0002",
              "name": "Pithom",
              "sourceOrder": 3,
              "visibility": null,
              "initiallyVisible": true,
              "geometryType": "Point"
            },
            {
              "type": "feature",
              "id": "feature-0003",
              "name": "Goshen",
              "sourceOrder": 4,
              "visibility": null,
              "initiallyVisible": true,
              "geometryType": "Point"
            },
            {
              "type": "feature",
              "id": "feature-0004",
              "name": "Goshen",
              "sourceOrder": 5,
              "visibility": null,
              "initiallyVisible": true,
              "geometryType": "Polygon"
            }
          ]
        }
      ]
    }
  }
}
