{
  "type": "FeatureCollection",
  "features": [
    {
      "type": "Feature",
      "geometry": {
        "type": "Point",
        "coordinates": [
          44.300381,
          39.702761,
          0
        ]
      },
      "properties": {
        "name": "Ararat / Urartu",
        "visibility": false,
        "open": "1",
        "styleUrl": "#landrepresentativepoint0",
        "icon-scale": 0.75,
        "icon": "https://maps.google.com/mapfiles/kml/paddle/wht-circle.png",
        "kml": {
          "folderIds": [
            "folder-0001"
          ],
          "folderPath": [
            "004_Genesis5-6_10"
          ],
          "sourceOrder": 2,
          "visibility": false,
          "initiallyVisible": false
        }
      },
      "id": "feature-0001"
    }
  ],
  "layerTree": {
    "schemaVersion": 1,
    "root": {
      "type": "root",
      "id": "root",
      "name": "004_Genesis5-6_10.kmz",
      "sourceOrder": 0,
      "visibility": null,
      "initiallyVisible": true,
      "open": null,
      "children": [
        {
          "type": "folder",
          "id": "folder-0001",
          "name": "004_Genesis5-6_10",
          "sourceOrder": 1,
          "visibility": false,
          "initiallyVisible": false,
          "open": null,
          "children": [
            {
              "type": "feature",
              "id": "feature-0001",
              "name": "Ararat / Urartu",
              "sourceOrder": 2,
              "visibility": false,
              "initiallyVisible": false,
              "geometryType": "Point"
            }
          ]
        }
      ]
    }
  }
}
