{
  "type": "FeatureCollection",
  "features": [
    {
      "type": "Feature",
      "geometry": {
        "type": "LineString",
        "coordinates": [
          [
            34.985111,
            29.524852,
            0
          ],
          [
            35.655727,
            30.390013,
            0
          ],
          [
            35.876257,
            30.971797,
            0
          ],
          [
            35.698572,
            31.178623,
            0
          ],
          [
            35.794945,
            31.716413,
            0
          ],
          [
            35.942222,
            31.954581,
            0
          ],
          [
            35.873331,
            32.278884,
            0
          ],
          [
            36.086399,
            32.63039,
            0
          ],
          [
            36.018368,
            32.808296,
            0
          ],
          [
            36.30926,
            33.505467,
            0
          ],
          [
            36.57195423245477,
            33.62461151751935,
            0
          ],
          [
            36.78404204436053,
            33.63902521803313,
            0
          ],
          [
            36.98465095509147,
            33.7308865559441,
            0
          ],
          [
            37.13939838073088,
            33.79001281498397,
            0
          ],
          [
            37.36638758731567,
            33.96392559010569,
            0
          ],
          [
            37.58531545221797,
            34.1269237067705,
            0
          ],
          [
            37.7228474937774,
            34.18919984844873,
            0
          ],
          [
            37.99385510732441,
            34.25659293868182,
            0
          ],
          [
            38.15957121985744,
            34.33025413536579,
            0
          ],
          [
            38.30242738257759,
            34.56587240809422,
            0
          ],
          [
            38.43443167439764,
            34.60667756567785,
            0
          ],
          [
            38.69614996899805,
            34.70725486670741,
            0
          ],
          [
            38.77788557232607,
            34.78964502610052,
            0
          ],
          [
            38.88479211840717,
            34.87116859541977,
            0
          ],
          [
            38.88348851872119,
            35.17567555871474,
            0
          ],
          [
            38.78978171651026,
            35.61415538540826,
            0
          ]
        ]
      },
      "properties": {
        "name": "King's Highway",
        "styleUrl": "#path2",
        "stroke-opacity": 1,
        "stroke": "#fc02ff",
        "stroke-width": 6,
        "kml": {
          "folderIds": [
            "folder-0001"
          ],
          "folderPath": [
            "038_Exodus15_19-15_21"
          ],
          "sourceOrder": 2,
          "visibility": null,
          "initiallyVisible": true
        }
      },
      "id": "feature-0001"
    },
    {
      "type": "Feature",
      "geometry": {
        "type": "LineString",
        "coordinates": [
          [
            31.24457434603732,
            29.99909668906479,
            0
          ],
          [
            31.22502461110274,
            30.28392178664124,
            0
          ],
          [
            31.25789141194915,
            30.49277428060459,
            0
          ],
          [
            31.51578185114893,
            30.61382360690847,
            0
          ],
          [
            31.63120847118744,
            30.57280710065536,
            0
          ],
          [
            31.96087610505926,
            30.57961500525184,
            0
          ],
          [
            32.15132965962282,
            30.8716163044687,
            0
          ],
          [
            32.29847698869586,
            31.13493121062513,
            0
          ],
          [
            32.32211476818372,
            31.2276533504609,
            0
          ],
          [
            32.42580149909075,
            31.1204691328144,
            0
          ],
          [
            32.63078632735025,
            31.00358526246044,
            0
          ],
          [
            32.81470819484917,
            30.99482932444804,
            0
          ],
          [
            33.01049848289433,
            31.04564185409632,
            0
          ],
          [
            33.23270534455031,
            31.01481969205346,
            0
          ],
          [
            33.53024345195971,
            31.08718411066041,
            0
          ],
          [
            33.77484497151931,
            31.13258685938002,
            0
          ],
          [
            33.92452351056632,
            31.15281375291697,
            0
          ],
          [
            34.1705368174597,
            31.22779900604163,
            0
          ],
          [
            34.4610005049507,
            31.4916304410424,
            0
          ],
          [
            34.5715,
            31.6693,
            0
          ],
          [
            34.6528,
            31.8014,
            0
          ],
          [
            34.9189,
            32.1111,
            0
          ],
          [
            34.9167,
            32.6167,
            0
          ],
          [
            35.1844,
            32.5853,
            0
          ],
          [
            35.5304,
            32.7959,
            0
          ],
          [
            35.575,
            32.8807,
            0
          ],
          [
            35.56873296511816,
            33.23315817240881,
            0
          ],
          [
            35.59195474556458,
            33.2254070546423,
            0
          ],
          [
            35.66575629813046,
            33.23260174637826,
            0
          ],
          [
            35.70768472793164,
            33.23579795830859,
            0
          ],
          [
            35.74949764351986,
            33.22452122730856,
            0
          ],
          [
            35.76370907059586,
            33.24497389744735,
            0
          ],
          [
            35.78701894160554,
            33.26855463741794,
            0
          ],
          [
            35.83531361152779,
            33.28545324326386,
            0
          ],
          [
            35.87815410006458,
            33.31061320295024,
            0
          ],
          [
            35.92276534563801,
            33.30925324267204,
            0
          ],
          [
            35.95907426135003,
            33.30740283562314,
            0
          ],
          [
            35.99996172627055,
            33.30611379925848,
            0
          ],
          [
            36.0238206686993,
            33.29679448086204,
            0
          ],
          [
            36.0770663773222,
            33.32807030172055,
            0
          ],
          [
            36.1220910796122,
            33.39292551872573,
            0
          ],
          [
            36.17617433023967,
            33.45110169571294,
            0
          ],
          [
            36.2199800547839,
            33.48027431342059,
            0
          ],
          [
            36.2802847938896,
            33.49118316026465,
            0
          ],
          [
            36.30086120147731,
            33.49941598862081,
            0
          ]
        ]
      },
      "properties": {
        "name": "Via Maris Route",
        "styleUrl": "#routeStyle00",
        "stroke-opacity": 1,
        "stroke": "#ff0000",
        "stroke-width": 4,
        "kml": {
          "folderIds": [
            "folder-0001"
          ],
          "folderPath": [
            "038_Exodus15_19-15_21"
          ],
          "sourceOrder": 3,
          "visibility": null,
          "initiallyVisible": true
        }
      },
      "id": "feature-0002"
    },
    {
      "type": "Feature",
      "geometry": {
        "type": "Polygon",
        "coordinates": [
          [
            [
              39.14492,
              37.65352,
              0
            ],
            [
              39.14492,
              37.51237,
              0
            ],
            [
              39.48537,
              36.10092,
              0
            ],
            [
              41.35782,
              34.97175,
              0
            ],
            [
              41.52804,
              34.97175,
              0
            ],
            [
              41.69827,
              34.97175,
              0
            ],
            [
              41.86849,
              34.97175,
              0
            ],
            [
              42.03871,
              34.97175,
              0
            ],
            [
              42.20894,
              34.97175,
              0
            ],
            [
              42.37916,
              34.97175,
              0
            ],
            [
              42.54938,
              34.97175,
              0
            ],
            [
              42.71961,
              34.97175,
              0
            ],
            [
              42.88983,
              34.97175,
              0
            ],
            [
              43.06005,
              34.97175,
              0
            ],
            [
              43.23027,
              34.97175,
              0
            ],
            [
              45.44317,
              35.39519,
              0
            ],
            [
              47.31563,
              36.52435,
              0
            ],
            [
              47.31563,
              36.6655,
              0
            ],
            [
              47.14540000000001,
              36.80665,
              0
            ],
            [
              42.71961,
              38.07695,
              0
            ],
            [
              41.86849,
              38.2181,
              0
            ],
            [
              41.69827,
              38.2181,
              0
            ],
            [
              41.52804,
              38.2181,
              0
            ],
            [
              41.35782,
              38.2181,
              0
            ],
            [
              41.1876,
              38.2181,
              0
            ],
            [
              39.14492,
              37.65352,
              0
            ]
          ]
        ]
      },
      "properties": {
        "name": "Assyria Core",
        "styleUrl": "#landisobands",
        "fill-opacity": 0.5019607843137255,
        "fill": "#800002",
        "kml": {
          "folderIds": [
            "folder-0001",
            "folder-0002"
          ],
          "folderPath": [
            "038_Exodus15_19-15_21",
            "Pillar"
          ],
          "sourceOrder": 5,
          "visibility": null,
          "initiallyVisible": true
        }
      },
      "id": "feature-0003"
    },
    {
      "type": "Feature",
      "geometry": {
        "type": "Polygon",
        "coordinates": [
          [
            [
              37.94858114778248,
              38.30978248043397,
              0
            ],
            [
              36.02379918505158,
              37.00553781857395,
              0
            ],
            [
              36.26088189635476,
              36.74728066637664,
              0
            ],
            [
              36.10979501107202,
              36.55303518934515,
              0
            ],
            [
              35.86961864140236,
              36.30857380645712,
              0
            ],
            [
              35.99092296878191,
              36.02757243505483,
              0
            ],
            [
              35.91984220375566,
              35.79621865956921,
              0
            ],
            [
              35.90025232200067,
              35.42931215673937,
              0
            ],
            [
              35.93759326069637,
              35.1370181391651,
              0
            ],
            [
              35.97024758533321,
              34.81735611849001,
              0
            ],
            [
              36.03537469047051,
              34.49487988010765,
              0
            ],
            [
              35.67547322575039,
              33.99636537024214,
              0
            ],
            [
              35.38164439344521,
              33.60271731057316,
              0
            ],
            [
              35.02583253544081,
              32.73382375203511,
              0
            ],
            [
              34.87893322061574,
              32.16312150767801,
              0
            ],
            [
              34.68805271693139,
              31.79236112861758,
              0
            ],
            [
              34.75636581415746,
              31.91712934529765,
              0
            ],
            [
              35.09115774484626,
              31.90510985965268,
              0
            ],
            [
              35.44316553556701,
              31.90084955046778,
              0
            ],
            [
              35.95869009820814,
              31.92284150873744,
              0
            ],
            [
              36.67750387150113,
              33.39817966130038,
              0
            ],
            [
              37.8518708842292,
              33.99054955959574,
              0
            ],
            [
              39.30520396695497,
              34.6350676551548,
              0
            ],
            [
              41.35782,
              34.97175,
              0
            ],
            [
              41.52804,
              34.97175,
              0
            ],
            [
              41.69827,
              34.97175,
              0
            ],
            [
              41.86849,
              34.97175,
              0
            ],
            [
              42.03871,
              34.97175,
              0
            ],
            [
              42.20894,
              34.97175,
              0
            ],
            [
              42.37916,
              34.97175,
              0
            ],
            [
              42.54938,
              34.97175,
              0
            ],
            [
              42.71961,
              34.97175,
              0
            ],
            [
              42.88983,
              34.97175,
              0
            ],
            [
              43.06005,
              34.97175,
              0
            ],
            [
              43.23027,
              34.97175,
              0
            ],
            [
              45.44317,
              35.39519,
              0
            ],
            [
              47.31563,
              36.52435,
              0
            ],
            [
              47.31563,
              36.6655,
              0
            ],
            [
              47.14540000000001,
              36.80665,
              0
            ],
            [
              42.71961,
              38.07695,
              0
            ],
            [
              41.86849,
              38.2181,
              0
            ],
            [
              41.69827,
              38.2181,
              0
            ],
            [
              41.52804,
              38.2181,
              0
            ],
            [
              41.35782,
              38.2181,
              0
            ],
            [
              41.1876,
              38.2181,
              0
            ],
            [
              37.94858114778248,
              38.30978248043397,
              0
            ]
          ]
        ]
      },
      "properties": {
        "name": "Assyria Peak",
        "open": "1",
        "styleUrl": "#landisobands5",
        "fill-opacity": 0.5019607843137255,
        "fill": "#800002",
        "kml": {
          "folderIds": [
            "folder-0001",
            "folder-0002"
          ],
          "folderPath": [
            "038_Exodus15_19-15_21",
            "Pillar"
          ],
          "sourceOrder": 6,
          "visibility": null,
          "initiallyVisible": true
        }
      },
      "id": "feature-0004"
    },
    {
      "type": "Feature",
      "geometry": {
        "type": "Point",
        "coordinates": [
          43.1528,
          36.3594,
          0
        ]
      },
      "properties": {
        "name": "Nineveh/Assyria",
        "styleUrl": "#landpoint0033203555822223",
        "label-opacity": 1,
        "label-color": "#80ff07",
        "label-scale": 3,
        "icon-opacity": 1,
        "icon-color": "#fc0107",
        "icon-scale": 2,
        "icon-offset": [
          32,
          1
        ],
        "icon-offset-units": [
          "pixels",
          "pixels"
        ],
        "icon": "http://maps.google.com/mapfiles/kml/paddle/red-circle.png",
        "kml": {
          "folderIds": [
            "folder-0001",
            "folder-0002"
          ],
          "folderPath": [
            "038_Exodus15_19-15_21",
            "Pillar"
          ],
          "sourceOrder": 7,
          "visibility": null,
          "initiallyVisible": true
        }
      },
      "id": "feature-0005"
    },
    {
      "type": "Feature",
      "geometry": {
        "type": "Point",
        "coordinates": [
          46.0870344710339,
          31.25102380829417,
          0
        ]
      },
      "properties": {
        "name": "Babylon",
        "open": "1",
        "styleUrl": "#landpoint0033203555822220",
        "label-opacity": 1,
        "label-color": "#80ff07",
        "label-scale": 3,
        "icon-opacity": 1,
        "icon-color": "#fc0107",
        "icon-scale": 2,
        "icon-offset": [
          32,
          1
        ],
        "icon-offset-units": [
          "pixels",
          "pixels"
        ],
        "icon": "http://maps.google.com/mapfiles/kml/paddle/red-circle.png",
        "kml": {
          "folderIds": [
            "folder-0001",
            "folder-0002"
          ],
          "folderPath": [
            "038_Exodus15_19-15_21",
            "Pillar"
          ],
          "sourceOrder": 8,
          "visibility": null,
          "initiallyVisible": true
        }
      },
      "id": "feature-0006"
    },
    {
      "type": "Feature",
      "geometry": {
        "type": "Point",
        "coordinates": [
          38.01719652923256,
          36.82985512468856,
          0
        ]
      },
      "properties": {
        "name": "Carchemish",
        "open": "1",
        "styleUrl": "#landpoint0033203555822221",
        "label-opacity": 1,
        "label-color": "#80ff07",
        "label-scale": 3,
        "icon-opacity": 1,
        "icon-color": "#fc0107",
        "icon-scale": 2,
        "icon-offset": [
          32,
          1
        ],
        "icon-offset-units": [
          "pixels",
          "pixels"
        ],
        "icon": "http://maps.google.com/mapfiles/kml/paddle/red-circle.png",
        "kml": {
          "folderIds": [
            "folder-0001",
            "folder-0002"
          ],
          "folderPath": [
            "038_Exodus15_19-15_21",
            "Pillar"
          ],
          "sourceOrder": 9,
          "visibility": null,
          "initiallyVisible": true
        }
      },
      "id": "feature-0007"
    },
    {
      "type": "Feature",
      "geometry": {
        "type": "Polygon",
        "coordinates": [
          [
            [
              44.44752,
              31.80262,
              0
            ],
            [
              44.44752,
              31.69905,
              0
            ],
            [
              44.44752,
              31.59548,
              0
            ],
            [
              44.44752,
              31.49191,
              0
            ],
            [
              44.44752,
              31.38834,
              0
            ],
            [
              45.16514000000001,
              30.4562,
              0
            ],
            [
              45.40433999999999,
              30.14549,
              0
            ],
            [
              45.88274999999999,
              30.04192,
              0
            ],
            [
              46.00236,
              30.04192,
              0
            ],
            [
              46.12196,
              30.04192,
              0
            ],
            [
              46.24156,
              30.04192,
              0
            ],
            [
              46.36117,
              30.04192,
              0
            ],
            [
              46.48077000000001,
              30.04192,
              0
            ],
            [
              46.60037,
              30.04192,
              0
            ],
            [
              46.71998,
              30.04192,
              0
            ],
            [
              46.83958,
              30.04192,
              0
            ],
            [
              46.95918,
              30.04192,
              0
            ],
            [
              47.07878,
              30.04192,
              0
            ],
            [
              47.43759000000001,
              30.14549,
              0
            ],
            [
              48.15521,
              30.66334,
              0
            ],
            [
              48.27482,
              30.76691,
              0
            ],
            [
              48.27482,
              30.87048,
              0
            ],
            [
              46.83958,
              32.00976,
              0
            ],
            [
              46.36117,
              32.32047,
              0
            ],
            [
              45.04553,
              32.83833,
              0
            ],
            [
              44.92593,
              32.83833,
              0
            ],
            [
              44.56712,
              32.83833,
              0
            ],
            [
              44.44752,
              32.2169,
              0
            ],
            [
              44.44752,
              32.11333,
              0
            ],
            [
              44.44752,
              32.00976,
              0
            ],
            [
              44.44752,
              31.90619,
              0
            ],
            [
              44.44752,
              31.80262,
              0
            ]
          ]
        ]
      },
      "properties": {
        "name": "Babylon",
        "styleUrl": "#landisobands20",
        "fill-opacity": 0.5019607843137255,
        "fill": "#408002",
        "kml": {
          "folderIds": [
            "folder-0001",
            "folder-0002"
          ],
          "folderPath": [
            "038_Exodus15_19-15_21",
            "Pillar"
          ],
          "sourceOrder": 10,
          "visibility": null,
          "initiallyVisible": true
        }
      },
      "id": "feature-0008"
    },
    {
      "type": "Feature",
      "geometry": {
        "type": "Point",
        "coordinates": [
          30.89401259113183,
          30.11662084900615,
          0
        ]
      },
      "properties": {
        "name": "Egypt",
        "styleUrl": "#landpoint0033203555822224",
        "label-opacity": 1,
        "label-color": "#80ff07",
        "label-scale": 3,
        "icon-opacity": 1,
        "icon-color": "#fc0107",
        "icon-scale": 2,
        "icon-offset": [
          32,
          1
        ],
        "icon-offset-units": [
          "pixels",
          "pixels"
        ],
        "icon": "http://maps.google.com/mapfiles/kml/paddle/red-circle.png",
        "kml": {
          "folderIds": [
            "folder-0001",
            "folder-0002"
          ],
          "folderPath": [
            "038_Exodus15_19-15_21",
            "Pillar"
          ],
          "sourceOrder": 11,
          "visibility": null,
          "initiallyVisible": true
        }
      },
      "id": "feature-0009"
    },
    {
      "type": "Feature",
      "geometry": {
        "type": "Polygon",
        "coordinates": [
          [
            [
              29.73021,
              24.8548,
              0
            ],
            [
              32.76415,
              24.45298,
              0
            ],
            [
              32.98086,
              24.45298,
              0
            ],
            [
              33.19757,
              24.45298,
              0
            ],
            [
              34.28111,
              24.45298,
              0
            ],
            [
              34.28111,
              24.65389,
              0
            ],
            [
              34.28111,
              24.8548,
              0
            ],
            [
              33.84769,
              30.68111,
              0
            ],
            [
              32.76415,
              31.08292,
              0
            ],
            [
              32.11402,
              31.28383,
              0
            ],
            [
              31.03047,
              31.48474,
              0
            ],
            [
              28.21325,
              30.68111,
              0
            ],
            [
              27.99654,
              30.4802,
              0
            ],
            [
              28.21325,
              28.06932,
              0
            ],
            [
              29.73021,
              24.8548,
              0
            ]
          ]
        ]
      },
      "properties": {
        "name": "Egypt",
        "styleUrl": "#landisobands1",
        "fill-opacity": 0.5019607843137255,
        "fill": "#80ff07",
        "kml": {
          "folderIds": [
            "folder-0001",
            "folder-0002"
          ],
          "folderPath": [
            "038_Exodus15_19-15_21",
            "Pillar"
          ],
          "sourceOrder": 12,
          "visibility": null,
          "initiallyVisible": true
        }
      },
      "id": "feature-0010"
    },
    {
      "type": "Feature",
      "geometry": {
        "type": "Polygon",
        "coordinates": [
          [
            [
              31.56946,
              30.86821,
              0
            ],
            [
              31.44489,
              30.83224,
              0
            ],
            [
              31.40337,
              30.72432,
              0
            ],
            [
              31.40337,
              30.47251,
              0
            ],
            [
              31.40337,
              30.43654,
              0
            ],
            [
              31.40337,
              30.40057,
              0
            ],
            [
              31.61098,
              30.32862,
              0
            ],
            [
              31.6525,
              30.32862,
              0
            ],
            [
              31.69401999999999,
              30.32862,
              0
            ],
            [
              31.73555,
              30.32862,
              0
            ],
            [
              31.77707,
              30.32862,
              0
            ],
            [
              31.81859,
              30.32862,
              0
            ],
            [
              31.98468,
              30.40057,
              0
            ],
            [
              32.15077,
              30.68835,
              0
            ],
            [
              32.15077,
              30.72432,
              0
            ],
            [
              32.10925,
              30.83224,
              0
            ],
            [
              32.06772,
              30.94015,
              0
            ],
            [
              32.0262,
              30.94015,
              0
            ],
            [
              31.98468,
              30.94015,
              0
            ],
            [
              31.90164,
              30.94015,
              0
            ],
            [
              31.81859,
              30.94015,
              0
            ],
            [
              31.56946,
              30.86821,
              0
            ]
          ]
        ]
      },
      "properties": {
        "name": "Goshen",
        "visibility": false,
        "styleUrl": "#landisobands2252222223",
        "fill-opacity": 0.5019607843137255,
        "fill": "#20ffff",
        "stroke-width": 2,
        "kml": {
          "folderIds": [
            "folder-0001",
            "folder-0003"
          ],
          "folderPath": [
            "038_Exodus15_19-15_21",
            "Exodus"
          ],
          "sourceOrder": 14,
          "visibility": false,
          "initiallyVisible": false
        }
      },
      "id": "feature-0011"
    },
    {
      "type": "Feature",
      "geometry": {
        "type": "Point",
        "coordinates": [
          31.834217,
          30.79937,
          0
        ]
      },
      "properties": {
        "name": "Rameses",
        "visibility": false,
        "styleUrl": "#landpoint0033203555822",
        "label-opacity": 1,
        "label-color": "#80ff07",
        "label-scale": 3,
        "icon-opacity": 1,
        "icon-color": "#fc0107",
        "icon-scale": 2,
        "icon-offset": [
          32,
          1
        ],
        "icon-offset-units": [
          "pixels",
          "pixels"
        ],
        "icon": "http://maps.google.com/mapfiles/kml/paddle/red-circle.png",
        "kml": {
          "folderIds": [
            "folder-0001",
            "folder-0003"
          ],
          "folderPath": [
            "038_Exodus15_19-15_21",
            "Exodus"
          ],
          "sourceOrder": 15,
          "visibility": false,
          "initiallyVisible": false
        }
      },
      "id": "feature-0012"
    },
    {
      "type": "Feature",
      "geometry": {
        "type": "Point",
        "coordinates": [
          32.099,
          30.5527,
          0
        ]
      },
      "properties": {
        "name": "Succoth",
        "visibility": false,
        "styleUrl": "#landpoint1008440",
        "label-opacity": 1,
        "label-color": "#80ff07",
        "label-scale": 3,
        "icon-opacity": 1,
        "icon-color": "#fc0107",
        "icon-scale": 2,
        "icon-offset": [
          32,
          1
        ],
        "icon-offset-units": [
          "pixels",
          "pixels"
        ],
        "icon": "http://maps.google.com/mapfiles/kml/paddle/red-circle.png",
        "kml": {
          "folderIds": [
            "folder-0001",
            "folder-0003"
          ],
          "folderPath": [
            "038_Exodus15_19-15_21",
            "Exodus"
          ],
          "sourceOrder": 16,
          "visibility": false,
          "initiallyVisible": false
        }
      },
      "id": "feature-0013"
    },
    {
      "type": "Feature",
      "geometry": {
        "type": "Point",
        "coordinates": [
          35.33530922835835,
          28.59635798557253,
          0
        ]
      },
      "properties": {
        "name": "Sinai (Jabal Maqla)",
        "visibility": false,
        "styleUrl": "#landpoint1007",
        "label-opacity": 1,
        "label-color": "#80ff07",
        "label-scale": 3,
        "icon-opacity": 1,
        "icon-color": "#fc0107",
        "icon-scale": 2,
        "icon-offset": [
          32,
          1
        ],
        "icon-offset-units": [
          "pixels",
          "pixels"
        ],
        "icon": "http://maps.google.com/mapfiles/kml/paddle/red-circle.png",
        "kml": {
          "folderIds": [
            "folder-0001",
            "folder-0004"
          ],
          "folderPath": [
            "038_Exodus15_19-15_21",
            "Sinai"
          ],
          "sourceOrder": 18,
          "visibility": false,
          "initiallyVisible": false
        }
      },
      "id": "feature-0014"
    },
    {
      "type": "Feature",
      "geometry": {
        "type": "Point",
        "coordinates": [
          33.973333,
          28.539722,
          0
        ]
      },
      "properties": {
        "name": "Sinai / Jebel Musa",
        "visibility": false,
        "styleUrl": "#landpoint100832",
        "label-opacity": 1,
        "label-color": "#80ff07",
        "label-scale": 3,
        "icon-opacity": 1,
        "icon-color": "#fc0107",
        "icon-scale": 2,
        "icon-offset": [
          32,
          1
        ],
        "icon-offset-units": [
          "pixels",
          "pixels"
        ],
        "icon": "http://maps.google.com/mapfiles/kml/paddle/red-circle.png",
        "kml": {
          "folderIds": [
            "folder-0001",
            "folder-0004"
          ],
          "folderPath": [
            "038_Exodus15_19-15_21",
            "Sinai"
          ],
          "sourceOrder": 19,
          "visibility": false,
          "initiallyVisible": false
        }
      },
      "id": "feature-0015"
    },
    {
      "type": "Feature",
      "geometry": {
        "type": "Point",
        "coordinates": [
          32.49449359448923,
          29.84687258311714,
          0
        ]
      },
      "properties": {
        "name": "Gulf of Suez",
        "visibility": false,
        "styleUrl": "#landpoint0033200140",
        "label-opacity": 1,
        "label-color": "#80ff07",
        "label-scale": 3,
        "icon-opacity": 1,
        "icon-color": "#fc0107",
        "icon-scale": 2,
        "icon-offset": [
          32,
          1
        ],
        "icon-offset-units": [
          "pixels",
          "pixels"
        ],
        "icon": "http://maps.google.com/mapfiles/kml/paddle/red-circle.png",
        "kml": {
          "folderIds": [
            "folder-0001",
            "folder-0004"
          ],
          "folderPath": [
            "038_Exodus15_19-15_21",
            "Sinai"
          ],
          "sourceOrder": 20,
          "visibility": false,
          "initiallyVisible": false
        }
      },
      "id": "feature-0016"
    },
    {
      "type": "Feature",
      "geometry": {
        "type": "Point",
        "coordinates": [
          34.66134966605235,
          29.01757850813101,
          0
        ]
      },
      "properties": {
        "name": "Nuweiba",
        "visibility": false,
        "styleUrl": "#landpoint0033200142",
        "label-opacity": 1,
        "label-color": "#80ff07",
        "label-scale": 3,
        "icon-opacity": 1,
        "icon-color": "#fc0107",
        "icon-scale": 2,
        "icon-offset": [
          32,
          1
        ],
        "icon-offset-units": [
          "pixels",
          "pixels"
        ],
        "icon": "http://maps.google.com/mapfiles/kml/paddle/red-circle.png",
        "kml": {
          "folderIds": [
            "folder-0001",
            "folder-0004"
          ],
          "folderPath": [
            "038_Exodus15_19-15_21",
            "Sinai"
          ],
          "sourceOrder": 21,
          "visibility": false,
          "initiallyVisible": false
        }
      },
      "id": "feature-0017"
    },
    {
      "type": "Feature",
      "geometry": {
        "type": "Point",
        "coordinates": [
          35.4443633956445,
          30.3284534442008,
          0
        ]
      },
      "properties": {
        "name": "Edom",
        "visibility": false,
        "styleUrl": "#landrepresentativepoint0004722",
        "label-opacity": 1,
        "label-color": "#80ff07",
        "label-scale": 3,
        "icon-opacity": 1,
        "icon-color": "#fc0107",
        "icon-scale": 2,
        "icon-offset": [
          32,
          1
        ],
        "icon-offset-units": [
          "pixels",
          "pixels"
        ],
        "icon": "http://maps.google.com/mapfiles/kml/paddle/red-circle.png",
        "kml": {
          "folderIds": [
            "folder-0001",
            "folder-0005"
          ],
          "folderPath": [
            "038_Exodus15_19-15_21",
            "Esau"
          ],
          "sourceOrder": 23,
          "visibility": false,
          "initiallyVisible": false
        }
      },
      "id": "feature-0018"
    },
    {
      "type": "Feature",
      "geometry": {
        "type": "Polygon",
        "coordinates": [
          [
            [
              34.3355,
              30.47512,
              0
            ],
            [
              34.3355,
              30.41629,
              0
            ],
            [
              34.47046,
              30.12217,
              0
            ],
            [
              34.74039,
              29.59275999999999,
              0
            ],
            [
              34.80787,
              29.53393,
              0
            ],
            [
              34.87535,
              29.47511,
              0
            ],
            [
              35.01032,
              29.41629,
              0
            ],
            [
              35.0778,
              29.41629,
              0
            ],
            [
              35.41521,
              29.59275999999999,
              0
            ],
            [
              36.22499,
              30.23982,
              0
            ],
            [
              36.29247,
              30.59276,
              0
            ],
            [
              36.35995,
              31.00453,
              0
            ],
            [
              36.29247,
              31.06336,
              0
            ],
            [
              35.88758,
              31.12218,
              0
            ],
            [
              35.8201,
              31.12218,
              0
            ],
            [
              35.34773,
              31.06336,
              0
            ],
            [
              34.60543,
              30.82806,
              0
            ],
            [
              34.53794,
              30.76924,
              0
            ],
            [
              34.47046,
              30.71041,
              0
            ],
            [
              34.3355,
              30.53394,
              0
            ],
            [
              34.3355,
              30.47512,
              0
            ]
          ]
        ]
      },
      "properties": {
        "name": "Edom",
        "visibility": false,
        "styleUrl": "#landisobands225222221",
        "fill-opacity": 0.5019607843137255,
        "fill": "#800080",
        "stroke-width": 2,
        "kml": {
          "folderIds": [
            "folder-0001",
            "folder-0005"
          ],
          "folderPath": [
            "038_Exodus15_19-15_21",
            "Esau"
          ],
          "sourceOrder": 24,
          "visibility": false,
          "initiallyVisible": false
        }
      },
      "id": "feature-0019"
    },
    {
      "type": "Feature",
      "geometry": {
        "type": "Polygon",
        "coordinates": [
          [
            [
              34.22449,
              30.80387,
              0
            ],
            [
              34.35711,
              30.73536,
              0
            ],
            [
              34.38364,
              30.73536,
              0
            ],
            [
              34.51626,
              30.75819,
              0
            ],
            [
              34.64888,
              30.78103,
              0
            ],
            [
              35.02021,
              30.84954,
              0
            ],
            [
              35.04673,
              30.87238,
              0
            ],
            [
              35.07326,
              30.89521,
              0
            ],
            [
              35.25892,
              31.16925,
              0
            ],
            [
              34.96716,
              31.19208,
              0
            ],
            [
              34.5693,
              31.14641,
              0
            ],
            [
              34.30407,
              31.12358,
              0
            ],
            [
              34.14492,
              31.0779,
              0
            ],
            [
              34.17145,
              30.98656,
              0
            ],
            [
              34.19797,
              30.89521,
              0
            ],
            [
              34.22449,
              30.80387,
              0
            ]
          ]
        ]
      },
      "properties": {
        "name": "Amalekites",
        "visibility": false,
        "styleUrl": "#landisobands400",
        "fill-opacity": 0.5019607843137255,
        "fill": "#fc0107",
        "stroke-width": 2,
        "kml": {
          "folderIds": [
            "folder-0001",
            "folder-0005"
          ],
          "folderPath": [
            "038_Exodus15_19-15_21",
            "Esau"
          ],
          "sourceOrder": 25,
          "visibility": false,
          "initiallyVisible": false
        }
      },
      "id": "feature-0020"
    },
    {
      "type": "Feature",
      "geometry": {
        "type": "Point",
        "coordinates": [
          34.54837570313036,
          30.92350363865688,
          0
        ]
      },
      "properties": {
        "name": "Amelek",
        "visibility": false,
        "styleUrl": "#landpoint003320013",
        "label-opacity": 1,
        "label-color": "#80ff07",
        "label-scale": 3,
        "icon-opacity": 1,
        "icon-color": "#fc0107",
        "icon-scale": 2,
        "icon-offset": [
          32,
          1
        ],
        "icon-offset-units": [
          "pixels",
          "pixels"
        ],
        "icon": "http://maps.google.com/mapfiles/kml/paddle/red-circle.png",
        "kml": {
          "folderIds": [
            "folder-0001",
            "folder-0005"
          ],
          "folderPath": [
            "038_Exodus15_19-15_21",
            "Esau"
          ],
          "sourceOrder": 26,
          "visibility": false,
          "initiallyVisible": false
        }
      },
      "id": "feature-0021"
    },
    {
      "type": "Feature",
      "geometry": {
        "type": "Point",
        "coordinates": [
          35.4535541554151,
          30.32296644186248,
          0
        ]
      },
      "properties": {
        "name": "Petra",
        "visibility": false,
        "styleUrl": "#mfailed",
        "label-opacity": 1,
        "label-color": "#80ff07",
        "label-scale": 3,
        "icon-opacity": 1,
        "icon-color": "#fc0107",
        "icon-scale": 2,
        "icon-offset": [
          32,
          1
        ],
        "icon-offset-units": [
          "pixels",
          "pixels"
        ],
        "icon": "http://maps.google.com/mapfiles/kml/paddle/red-circle.png",
        "kml": {
          "folderIds": [
            "folder-0001",
            "folder-0005"
          ],
          "folderPath": [
            "038_Exodus15_19-15_21",
            "Esau"
          ],
          "sourceOrder": 27,
          "visibility": false,
          "initiallyVisible": false
        }
      },
      "id": "feature-0022"
    },
    {
      "type": "Feature",
      "geometry": {
        "type": "Point",
        "coordinates": [
          34.9189,
          32.1111,
          0
        ]
      },
      "properties": {
        "name": "Aphek",
        "visibility": false,
        "styleUrl": "#failed4",
        "label-opacity": 1,
        "label-color": "#80ff07",
        "label-scale": 3,
        "icon-opacity": 1,
        "icon-color": "#fc0107",
        "icon-scale": 2,
        "icon-offset": [
          32,
          1
        ],
        "icon-offset-units": [
          "pixels",
          "pixels"
        ],
        "icon": "http://maps.google.com/mapfiles/kml/paddle/red-circle.png",
        "kml": {
          "folderIds": [
            "folder-0001",
            "folder-0006"
          ],
          "folderPath": [
            "038_Exodus15_19-15_21",
            "Philistines"
          ],
          "sourceOrder": 29,
          "visibility": false,
          "initiallyVisible": false
        }
      },
      "id": "feature-0023"
    },
    {
      "type": "Feature",
      "geometry": {
        "type": "Point",
        "coordinates": [
          34.6528,
          31.8014,
          0
        ]
      },
      "properties": {
        "name": "Ashdod",
        "visibility": false,
        "styleUrl": "#failed5",
        "label-opacity": 1,
        "label-color": "#80ff07",
        "label-scale": 3,
        "icon-opacity": 1,
        "icon-color": "#fc0107",
        "icon-scale": 2,
        "icon-offset": [
          32,
          1
        ],
        "icon-offset-units": [
          "pixels",
          "pixels"
        ],
        "icon": "http://maps.google.com/mapfiles/kml/paddle/red-circle.png",
        "kml": {
          "folderIds": [
            "folder-0001",
            "folder-0006"
          ],
          "folderPath": [
            "038_Exodus15_19-15_21",
            "Philistines"
          ],
          "sourceOrder": 30,
          "visibility": false,
          "initiallyVisible": false
        }
      },
      "id": "feature-0024"
    },
    {
      "type": "Feature",
      "geometry": {
        "type": "Point",
        "coordinates": [
          34.5715,
          31.6693,
          0
        ]
      },
      "properties": {
        "name": "Ashkelon",
        "visibility": false,
        "styleUrl": "#failed0",
        "label-opacity": 1,
        "label-color": "#80ff07",
        "label-scale": 3,
        "icon-opacity": 1,
        "icon-color": "#fc0107",
        "icon-scale": 2,
        "icon-offset": [
          32,
          1
        ],
        "icon-offset-units": [
          "pixels",
          "pixels"
        ],
        "icon": "http://maps.google.com/mapfiles/kml/paddle/red-circle.png",
        "kml": {
          "folderIds": [
            "folder-0001",
            "folder-0006"
          ],
          "folderPath": [
            "038_Exodus15_19-15_21",
            "Philistines"
          ],
          "sourceOrder": 31,
          "visibility": false,
          "initiallyVisible": false
        }
      },
      "id": "feature-0025"
    },
    {
      "type": "Feature",
      "geometry": {
        "type": "Point",
        "coordinates": [
          34.4668,
          31.5017,
          0
        ]
      },
      "properties": {
        "name": "Gaza",
        "visibility": false,
        "styleUrl": "#failed3",
        "label-opacity": 1,
        "label-color": "#80ff07",
        "label-scale": 3,
        "icon-opacity": 1,
        "icon-color": "#fc0107",
        "icon-scale": 2,
        "icon-offset": [
          32,
          1
        ],
        "icon-offset-units": [
          "pixels",
          "pixels"
        ],
        "icon": "http://maps.google.com/mapfiles/kml/paddle/red-circle.png",
        "kml": {
          "folderIds": [
            "folder-0001",
            "folder-0006"
          ],
          "folderPath": [
            "038_Exodus15_19-15_21",
            "Philistines"
          ],
          "sourceOrder": 32,
          "visibility": false,
          "initiallyVisible": false
        }
      },
      "id": "feature-0026"
    },
    {
      "type": "Feature",
      "geometry": {
        "type": "Point",
        "coordinates": [
          35.23536543745337,
          31.77803947392815,
          0
        ]
      },
      "properties": {
        "name": "Jerusalem",
        "styleUrl": "#landpoint003320355582221",
        "label-opacity": 1,
        "label-color": "#80ff07",
        "label-scale": 3,
        "icon-opacity": 1,
        "icon-color": "#fc0107",
        "icon-scale": 2,
        "icon-offset": [
          32,
          1
        ],
        "icon-offset-units": [
          "pixels",
          "pixels"
        ],
        "icon": "http://maps.google.com/mapfiles/kml/paddle/red-circle.png",
        "kml": {
          "folderIds": [
            "folder-0001",
            "folder-0007"
          ],
          "folderPath": [
            "038_Exodus15_19-15_21",
            "Triumphal Entry"
          ],
          "sourceOrder": 34,
          "visibility": null,
          "initiallyVisible": true
        }
      },
      "id": "feature-0027"
    },
    {
      "type": "Feature",
      "geometry": {
        "type": "Point",
        "coordinates": [
          35.250839,
          31.777619,
          0
        ]
      },
      "properties": {
        "name": "Bethphage",
        "open": "1",
        "styleUrl": "#landpoint50002253",
        "label-opacity": 1,
        "label-color": "#80ff07",
        "label-scale": 3,
        "icon-opacity": 1,
        "icon-color": "#fc0107",
        "icon-scale": 2,
        "icon-offset": [
          32,
          1
        ],
        "icon-offset-units": [
          "pixels",
          "pixels"
        ],
        "icon": "http://maps.google.com/mapfiles/kml/paddle/red-circle.png",
        "kml": {
          "folderIds": [
            "folder-0001",
            "folder-0007"
          ],
          "folderPath": [
            "038_Exodus15_19-15_21",
            "Triumphal Entry"
          ],
          "sourceOrder": 35,
          "visibility": null,
          "initiallyVisible": true
        }
      },
      "id": "feature-0028"
    },
    {
      "type": "Feature",
      "geometry": {
        "type": "Point",
        "coordinates": [
          35.239425,
          31.779419,
          0
        ]
      },
      "properties": {
        "name": "Gethsemane",
        "open": "1",
        "styleUrl": "#landpoint50002257",
        "label-opacity": 1,
        "label-color": "#80ff07",
        "label-scale": 3,
        "icon-opacity": 1,
        "icon-color": "#fc0107",
        "icon-scale": 2,
        "icon-offset": [
          32,
          1
        ],
        "icon-offset-units": [
          "pixels",
          "pixels"
        ],
        "icon": "http://maps.google.com/mapfiles/kml/paddle/red-circle.png",
        "kml": {
          "folderIds": [
            "folder-0001",
            "folder-0007"
          ],
          "folderPath": [
            "038_Exodus15_19-15_21",
            "Triumphal Entry"
          ],
          "sourceOrder": 36,
          "visibility": null,
          "initiallyVisible": true
        }
      },
      "id": "feature-0029"
    },
    {
      "type": "Feature",
      "geometry": {
        "type": "Point",
        "coordinates": [
          35.255903,
          31.771661,
          0
        ]
      },
      "properties": {
        "name": "Bethany",
        "open": "1",
        "styleUrl": "#landpoint50002256",
        "label-opacity": 1,
        "label-color": "#80ff07",
        "label-scale": 3,
        "icon-opacity": 1,
        "icon-color": "#fc0107",
        "icon-scale": 2,
        "icon-offset": [
          32,
          1
        ],
        "icon-offset-units": [
          "pixels",
          "pixels"
        ],
        "icon": "http://maps.google.com/mapfiles/kml/paddle/red-circle.png",
        "kml": {
          "folderIds": [
            "folder-0001",
            "folder-0007"
          ],
          "folderPath": [
            "038_Exodus15_19-15_21",
            "Triumphal Entry"
          ],
          "sourceOrder": 37,
          "visibility": null,
          "initiallyVisible": true
        }
      },
      "id": "feature-0030"
    },
    {
      "type": "Feature",
      "geometry": {
        "type": "Point",
        "coordinates": [
          35.444564,
          31.871719,
          0
        ]
      },
      "properties": {
        "name": "Jericho",
        "styleUrl": "#landpoint3021",
        "label-opacity": 1,
        "label-color": "#80ff07",
        "label-scale": 3,
        "icon-opacity": 1,
        "icon-color": "#fc0107",
        "icon-scale": 2,
        "icon-offset": [
          32,
          1
        ],
        "icon-offset-units": [
          "pixels",
          "pixels"
        ],
        "icon": "http://maps.google.com/mapfiles/kml/paddle/red-circle.png",
        "kml": {
          "folderIds": [
            "folder-0001",
            "folder-0007"
          ],
          "folderPath": [
            "038_Exodus15_19-15_21",
            "Triumphal Entry"
          ],
          "sourceOrder": 38,
          "visibility": null,
          "initiallyVisible": true
        }
      },
      "id": "feature-0031"
    },
    {
      "type": "Feature",
      "geometry": {
        "type": "LineString",
        "coordinates": [
          [
            35.44341864773338,
            31.87229189114561,
            0
          ],
          [
            35.25597747242633,
            31.77187017457628,
            0
          ],
          [
            35.25081930863065,
            31.77740371094059,
            0
          ],
          [
            35.23977604506737,
            31.77983312969481,
            0
          ],
          [
            35.23612162084893,
            31.77810929278725,
            0
          ]
        ]
      },
      "properties": {
        "name": "Route",
        "styleUrl": "#msn_ylw-pushpin4",
        "stroke-opacity": 1,
        "stroke": "#20ffff",
        "stroke-width": 5,
        "icon-scale": 1.1,
        "icon-offset": [
          20,
          2
        ],
        "icon-offset-units": [
          "pixels",
          "pixels"
        ],
        "icon": "http://maps.google.com/mapfiles/kml/pushpin/ylw-pushpin.png",
        "kml": {
          "folderIds": [
            "folder-0001",
            "folder-0007"
          ],
          "folderPath": [
            "038_Exodus15_19-15_21",
            "Triumphal Entry"
          ],
          "sourceOrder": 39,
          "visibility": null,
          "initiallyVisible": true
        }
      },
      "id": "feature-0032"
    }
  ],
  "layerTree": {
    "schemaVersion": 1,
    "root": {
      "type": "root",
      "id": "root",
      "name": "038_Exodus15_19-15_21.kmz",
      "sourceOrder": 0,
      "visibility": null,
      "initiallyVisible": true,
      "open": null,
      "children": [
        {
          "type": "folder",
          "id": "folder-0001",
          "name": "038_Exodus15_19-15_21",
          "sourceOrder": 1,
          "visibility": null,
          "initiallyVisible": true,
          "open": true,
          "children": [
            {
              "type": "feature",
              "id": "feature-0001",
              "name": "King's Highway",
              "sourceOrder": 2,
              "visibility": null,
              "initiallyVisible": true,
              "geometryType": "LineString"
            },
            {
              "type": "feature",
              "id": "feature-0002",
              "name": "Via Maris Route",
              "sourceOrder": 3,
              "visibility": null,
              "initiallyVisible": true,
              "geometryType": "LineString"
            },
            {
              "type": "folder",
              "id": "folder-0002",
              "name": "Pillar",
              "sourceOrder": 4,
              "visibility": null,
              "initiallyVisible": true,
              "open": true,
              "children": [
                {
                  "type": "feature",
                  "id": "feature-0003",
                  "name": "Assyria Core",
                  "sourceOrder": 5,
                  "visibility": null,
                  "initiallyVisible": true,
                  "geometryType": "Polygon"
                },
                {
                  "type": "feature",
                  "id": "feature-0004",
                  "name": "Assyria Peak",
                  "sourceOrder": 6,
                  "visibility": null,
                  "initiallyVisible": true,
                  "geometryType": "Polygon"
                },
                {
                  "type": "feature",
                  "id": "feature-0005",
                  "name": "Nineveh/Assyria",
                  "sourceOrder": 7,
                  "visibility": null,
                  "initiallyVisible": true,
                  "geometryType": "Point"
                },
                {
                  "type": "feature",
                  "id": "feature-0006",
                  "name": "Babylon",
                  "sourceOrder": 8,
                  "visibility": null,
                  "initiallyVisible": true,
                  "geometryType": "Point"
                },
                {
                  "type": "feature",
                  "id": "feature-0007",
                  "name": "Carchemish",
                  "sourceOrder": 9,
                  "visibility": null,
                  "initiallyVisible": true,
                  "geometryType": "Point"
                },
                {
                  "type": "feature",
                  "id": "feature-0008",
                  "name": "Babylon",
                  "sourceOrder": 10,
                  "visibility": null,
                  "initiallyVisible": true,
                  "geometryType": "Polygon"
                },
                {
                  "type": "feature",
                  "id": "feature-0009",
                  "name": "Egypt",
                  "sourceOrder": 11,
                  "visibility": null,
                  "initiallyVisible": true,
                  "geometryType": "Point"
                },
                {
                  "type": "feature",
                  "id": "feature-0010",
                  "name": "Egypt",
                  "sourceOrder": 12,
                  "visibility": null,
                  "initiallyVisible": true,
                  "geometryType": "Polygon"
                }
              ]
            },
            {
              "type": "folder",
              "id": "folder-0003",
              "name": "Exodus",
              "sourceOrder": 13,
              "visibility": false,
              "initiallyVisible": false,
              "open": null,
              "children": [
                {
                  "type": "feature",
                  "id": "feature-0011",
                  "name": "Goshen",
                  "sourceOrder": 14,
                  "visibility": false,
                  "initiallyVisible": false,
                  "geometryType": "Polygon"
                },
                {
                  "type": "feature",
                  "id": "feature-0012",
                  "name": "Rameses",
                  "sourceOrder": 15,
                  "visibility": false,
                  "initiallyVisible": false,
                  "geometryType": "Point"
                },
                {
                  "type": "feature",
                  "id": "feature-0013",
                  "name": "Succoth",
                  "sourceOrder": 16,
                  "visibility": false,
                  "initiallyVisible": false,
                  "geometryType": "Point"
                }
              ]
            },
            {
              "type": "folder",
              "id": "folder-0004",
              "name": "Sinai",
              "sourceOrder": 17,
              "visibility": false,
              "initiallyVisible": false,
              "open": null,
              "children": [
                {
                  "type": "feature",
                  "id": "feature-0014",
                  "name": "Sinai (Jabal Maqla)",
                  "sourceOrder": 18,
                  "visibility": false,
                  "initiallyVisible": false,
                  "geometryType": "Point"
                },
                {
                  "type": "feature",
                  "id": "feature-0015",
                  "name": "Sinai / Jebel Musa",
                  "sourceOrder": 19,
                  "visibility": false,
                  "initiallyVisible": false,
                  "geometryType": "Point"
                },
                {
                  "type": "feature",
                  "id": "feature-0016",
                  "name": "Gulf of Suez",
                  "sourceOrder": 20,
                  "visibility": false,
                  "initiallyVisible": false,
                  "geometryType": "Point"
                },
                {
                  "type": "feature",
                  "id": "feature-0017",
                  "name": "Nuweiba",
                  "sourceOrder": 21,
                  "visibility": false,
                  "initiallyVisible": false,
                  "geometryType": "Point"
                }
              ]
            },
            {
              "type": "folder",
              "id": "folder-0005",
              "name": "Esau",
              "sourceOrder": 22,
              "visibility": false,
              "initiallyVisible": false,
              "open": null,
              "children": [
                {
                  "type": "feature",
                  "id": "feature-0018",
                  "name": "Edom",
                  "sourceOrder": 23,
                  "visibility": false,
                  "initiallyVisible": false,
                  "geometryType": "Point"
                },
                {
                  "type": "feature",
                  "id": "feature-0019",
                  "name": "Edom",
                  "sourceOrder": 24,
                  "visibility": false,
                  "initiallyVisible": false,
                  "geometryType": "Polygon"
                },
                {
                  "type": "feature",
                  "id": "feature-0020",
                  "name": "Amalekites",
                  "sourceOrder": 25,
                  "visibility": false,
                  "initiallyVisible": false,
                  "geometryType": "Polygon"
                },
                {
                  "type": "feature",
                  "id": "feature-0021",
                  "name": "Amelek",
                  "sourceOrder": 26,
                  "visibility": false,
                  "initiallyVisible": false,
                  "geometryType": "Point"
                },
                {
                  "type": "feature",
                  "id": "feature-0022",
                  "name": "Petra",
                  "sourceOrder": 27,
                  "visibility": false,
                  "initiallyVisible": false,
                  "geometryType": "Point"
                }
              ]
            },
            {
              "type": "folder",
              "id": "folder-0006",
              "name": "Philistines",
              "sourceOrder": 28,
              "visibility": false,
              "initiallyVisible": false,
              "open": null,
              "children": [
                {
                  "type": "feature",
                  "id": "feature-0023",
                  "name": "Aphek",
                  "sourceOrder": 29,
                  "visibility": false,
                  "initiallyVisible": false,
                  "geometryType": "Point"
                },
                {
                  "type": "feature",
                  "id": "feature-0024",
                  "name": "Ashdod",
                  "sourceOrder": 30,
                  "visibility": false,
                  "initiallyVisible": false,
                  "geometryType": "Point"
                },
                {
                  "type": "feature",
                  "id": "feature-0025",
                  "name": "Ashkelon",
                  "sourceOrder": 31,
                  "visibility": false,
                  "initiallyVisible": false,
                  "geometryType": "Point"
                },
                {
                  "type": "feature",
                  "id": "feature-0026",
                  "name": "Gaza",
                  "sourceOrder": 32,
                  "visibility": false,
                  "initiallyVisible": false,
                  "geometryType": "Point"
                }
              ]
            },
            {
              "type": "folder",
              "id": "folder-0007",
              "name": "Triumphal Entry",
              "sourceOrder": 33,
              "visibility": null,
              "initiallyVisible": true,
              "open": null,
              "children": [
                {
                  "type": "feature",
                  "id": "feature-0027",
                  "name": "Jerusalem",
                  "sourceOrder": 34,
                  "visibility": null,
                  "initiallyVisible": true,
                  "geometryType": "Point"
                },
                {
                  "type": "feature",
                  "id": "feature-0028",
                  "name": "Bethphage",
                  "sourceOrder": 35,
                  "visibility": null,
                  "initiallyVisible": true,
                  "geometryType": "Point"
                },
                {
                  "type": "feature",
                  "id": "feature-0029",
                  "name": "Gethsemane",
                  "sourceOrder": 36,
                  "visibility": null,
                  "initiallyVisible": true,
                  "geometryType": "Point"
                },
                {
                  "type": "feature",
                  "id": "feature-0030",
                  "name": "Bethany",
                  "sourceOrder": 37,
                  "visibility": null,
                  "initiallyVisible": true,
                  "geometryType": "Point"
                },
                {
                  "type": "feature",
                  "id": "feature-0031",
                  "name": "Jericho",
                  "sourceOrder": 38,
                  "visibility": null,
                  "initiallyVisible": true,
                  "geometryType": "Point"
                },
                {
                  "type": "feature",
                  "id": "feature-0032",
                  "name": "Route",
                  "sourceOrder": 39,
                  "visibility": null,
                  "initiallyVisible": true,
                  "geometryType": "LineString"
                }
              ]
            }
          ]
        }
      ]
    }
  }
}
