{
  "type": "FeatureCollection",
  "features": [
    {
      "type": "Feature",
      "geometry": {
        "type": "LineString",
        "coordinates": [
          [
            34.985111,
            29.524852,
            0
          ],
          [
            35.655727,
            30.390013,
            0
          ],
          [
            35.876257,
            30.971797,
            0
          ],
          [
            35.698572,
            31.178623,
            0
          ],
          [
            35.794945,
            31.716413,
            0
          ],
          [
            35.942222,
            31.954581,
            0
          ],
          [
            35.873331,
            32.278884,
            0
          ],
          [
            36.086399,
            32.63039,
            0
          ],
          [
            36.018368,
            32.808296,
            0
          ],
          [
            36.30926,
            33.505467,
            0
          ],
          [
            36.57195423245477,
            33.62461151751935,
            0
          ],
          [
            36.78404204436053,
            33.63902521803313,
            0
          ],
          [
            36.98465095509147,
            33.7308865559441,
            0
          ],
          [
            37.13939838073088,
            33.79001281498397,
            0
          ],
          [
            37.36638758731567,
            33.96392559010569,
            0
          ],
          [
            37.58531545221797,
            34.1269237067705,
            0
          ],
          [
            37.7228474937774,
            34.18919984844873,
            0
          ],
          [
            37.99385510732441,
            34.25659293868182,
            0
          ],
          [
            38.15957121985744,
            34.33025413536579,
            0
          ],
          [
            38.30242738257759,
            34.56587240809422,
            0
          ],
          [
            38.43443167439764,
            34.60667756567785,
            0
          ],
          [
            38.69614996899805,
            34.70725486670741,
            0
          ],
          [
            38.77788557232607,
            34.78964502610052,
            0
          ],
          [
            38.88479211840717,
            34.87116859541977,
            0
          ],
          [
            38.88348851872119,
            35.17567555871474,
            0
          ],
          [
            38.78978171651026,
            35.61415538540826,
            0
          ]
        ]
      },
      "properties": {
        "name": "King's Highway",
        "open": "1",
        "styleUrl": "#path2",
        "stroke-opacity": 1,
        "stroke": "#fc02ff",
        "stroke-width": 6,
        "kml": {
          "folderIds": [
            "folder-0001"
          ],
          "folderPath": [
            "035_Exodus12_1-12_20"
          ],
          "sourceOrder": 2,
          "visibility": null,
          "initiallyVisible": true
        }
      },
      "id": "feature-0001"
    },
    {
      "type": "Feature",
      "geometry": {
        "type": "LineString",
        "coordinates": [
          [
            31.24457434603732,
            29.99909668906479,
            0
          ],
          [
            31.22502461110274,
            30.28392178664124,
            0
          ],
          [
            31.25789141194915,
            30.49277428060459,
            0
          ],
          [
            31.51578185114893,
            30.61382360690847,
            0
          ],
          [
            31.63120847118744,
            30.57280710065536,
            0
          ],
          [
            31.96087610505926,
            30.57961500525184,
            0
          ],
          [
            32.15132965962282,
            30.8716163044687,
            0
          ],
          [
            32.29847698869586,
            31.13493121062513,
            0
          ],
          [
            32.32211476818372,
            31.2276533504609,
            0
          ],
          [
            32.42580149909075,
            31.1204691328144,
            0
          ],
          [
            32.63078632735025,
            31.00358526246044,
            0
          ],
          [
            32.81470819484917,
            30.99482932444804,
            0
          ],
          [
            33.01049848289433,
            31.04564185409632,
            0
          ],
          [
            33.23270534455031,
            31.01481969205346,
            0
          ],
          [
            33.53024345195971,
            31.08718411066041,
            0
          ],
          [
            33.77484497151931,
            31.13258685938002,
            0
          ],
          [
            33.92452351056632,
            31.15281375291697,
            0
          ],
          [
            34.1705368174597,
            31.22779900604163,
            0
          ],
          [
            34.4610005049507,
            31.4916304410424,
            0
          ],
          [
            34.5715,
            31.6693,
            0
          ],
          [
            34.6528,
            31.8014,
            0
          ],
          [
            34.9189,
            32.1111,
            0
          ],
          [
            34.9167,
            32.6167,
            0
          ],
          [
            35.1844,
            32.5853,
            0
          ],
          [
            35.5304,
            32.7959,
            0
          ],
          [
            35.575,
            32.8807,
            0
          ],
          [
            35.56873296511816,
            33.23315817240881,
            0
          ],
          [
            35.59195474556458,
            33.2254070546423,
            0
          ],
          [
            35.66575629813046,
            33.23260174637826,
            0
          ],
          [
            35.70768472793164,
            33.23579795830859,
            0
          ],
          [
            35.74949764351986,
            33.22452122730856,
            0
          ],
          [
            35.76370907059586,
            33.24497389744735,
            0
          ],
          [
            35.78701894160554,
            33.26855463741794,
            0
          ],
          [
            35.83531361152779,
            33.28545324326386,
            0
          ],
          [
            35.87815410006458,
            33.31061320295024,
            0
          ],
          [
            35.92276534563801,
            33.30925324267204,
            0
          ],
          [
            35.95907426135003,
            33.30740283562314,
            0
          ],
          [
            35.99996172627055,
            33.30611379925848,
            0
          ],
          [
            36.0238206686993,
            33.29679448086204,
            0
          ],
          [
            36.0770663773222,
            33.32807030172055,
            0
          ],
          [
            36.1220910796122,
            33.39292551872573,
            0
          ],
          [
            36.17617433023967,
            33.45110169571294,
            0
          ],
          [
            36.2199800547839,
            33.48027431342059,
            0
          ],
          [
            36.2802847938896,
            33.49118316026465,
            0
          ],
          [
            36.30086120147731,
            33.49941598862081,
            0
          ]
        ]
      },
      "properties": {
        "name": "Via Maris Route",
        "open": "1",
        "styleUrl": "#routeStyle00",
        "stroke-opacity": 1,
        "stroke": "#ff0000",
        "stroke-width": 4,
        "kml": {
          "folderIds": [
            "folder-0001"
          ],
          "folderPath": [
            "035_Exodus12_1-12_20"
          ],
          "sourceOrder": 3,
          "visibility": null,
          "initiallyVisible": true
        }
      },
      "id": "feature-0002"
    },
    {
      "type": "Feature",
      "geometry": {
        "type": "Point",
        "coordinates": [
          31.834217,
          30.79937,
          0
        ]
      },
      "properties": {
        "name": "Rameses",
        "open": "1",
        "styleUrl": "#landpoint0033203555822",
        "label-opacity": 1,
        "label-color": "#80ff07",
        "label-scale": 3,
        "icon-opacity": 1,
        "icon-color": "#fc0107",
        "icon-scale": 2,
        "icon-offset": [
          32,
          1
        ],
        "icon-offset-units": [
          "pixels",
          "pixels"
        ],
        "icon": "http://maps.google.com/mapfiles/kml/paddle/red-circle.png",
        "kml": {
          "folderIds": [
            "folder-0001"
          ],
          "folderPath": [
            "035_Exodus12_1-12_20"
          ],
          "sourceOrder": 4,
          "visibility": null,
          "initiallyVisible": true
        }
      },
      "id": "feature-0003"
    },
    {
      "type": "Feature",
      "geometry": {
        "type": "Point",
        "coordinates": [
          32.099,
          30.5527,
          0
        ]
      },
      "properties": {
        "name": "Succoth",
        "open": "1",
        "styleUrl": "#landpoint1008440",
        "label-opacity": 1,
        "label-color": "#80ff07",
        "label-scale": 3,
        "icon-opacity": 1,
        "icon-color": "#fc0107",
        "icon-scale": 2,
        "icon-offset": [
          32,
          1
        ],
        "icon-offset-units": [
          "pixels",
          "pixels"
        ],
        "icon": "http://maps.google.com/mapfiles/kml/paddle/red-circle.png",
        "kml": {
          "folderIds": [
            "folder-0001"
          ],
          "folderPath": [
            "035_Exodus12_1-12_20"
          ],
          "sourceOrder": 5,
          "visibility": null,
          "initiallyVisible": true
        }
      },
      "id": "feature-0004"
    },
    {
      "type": "Feature",
      "geometry": {
        "type": "Point",
        "coordinates": [
          35.33530922835835,
          28.59635798557253,
          0
        ]
      },
      "properties": {
        "name": "Sinai (Jabal Maqla)",
        "styleUrl": "#landpoint1007",
        "label-opacity": 1,
        "label-color": "#80ff07",
        "label-scale": 3,
        "icon-opacity": 1,
        "icon-color": "#fc0107",
        "icon-scale": 2,
        "icon-offset": [
          32,
          1
        ],
        "icon-offset-units": [
          "pixels",
          "pixels"
        ],
        "icon": "http://maps.google.com/mapfiles/kml/paddle/red-circle.png",
        "kml": {
          "folderIds": [
            "folder-0001",
            "folder-0002"
          ],
          "folderPath": [
            "035_Exodus12_1-12_20",
            "Sinai"
          ],
          "sourceOrder": 7,
          "visibility": null,
          "initiallyVisible": true
        }
      },
      "id": "feature-0005"
    },
    {
      "type": "Feature",
      "geometry": {
        "type": "Point",
        "coordinates": [
          33.973333,
          28.539722,
          0
        ]
      },
      "properties": {
        "name": "Sinai / Jebel Musa",
        "styleUrl": "#landpoint100832",
        "label-opacity": 1,
        "label-color": "#80ff07",
        "label-scale": 3,
        "icon-opacity": 1,
        "icon-color": "#fc0107",
        "icon-scale": 2,
        "icon-offset": [
          32,
          1
        ],
        "icon-offset-units": [
          "pixels",
          "pixels"
        ],
        "icon": "http://maps.google.com/mapfiles/kml/paddle/red-circle.png",
        "kml": {
          "folderIds": [
            "folder-0001",
            "folder-0002"
          ],
          "folderPath": [
            "035_Exodus12_1-12_20",
            "Sinai"
          ],
          "sourceOrder": 8,
          "visibility": null,
          "initiallyVisible": true
        }
      },
      "id": "feature-0006"
    },
    {
      "type": "Feature",
      "geometry": {
        "type": "Point",
        "coordinates": [
          32.49449359448923,
          29.84687258311714,
          0
        ]
      },
      "properties": {
        "name": "Gulf of Suez",
        "styleUrl": "#landpoint0033200140",
        "label-opacity": 1,
        "label-color": "#80ff07",
        "label-scale": 3,
        "icon-opacity": 1,
        "icon-color": "#fc0107",
        "icon-scale": 2,
        "icon-offset": [
          32,
          1
        ],
        "icon-offset-units": [
          "pixels",
          "pixels"
        ],
        "icon": "http://maps.google.com/mapfiles/kml/paddle/red-circle.png",
        "kml": {
          "folderIds": [
            "folder-0001",
            "folder-0002"
          ],
          "folderPath": [
            "035_Exodus12_1-12_20",
            "Sinai"
          ],
          "sourceOrder": 9,
          "visibility": null,
          "initiallyVisible": true
        }
      },
      "id": "feature-0007"
    },
    {
      "type": "Feature",
      "geometry": {
        "type": "Point",
        "coordinates": [
          34.66134966605235,
          29.01757850813101,
          0
        ]
      },
      "properties": {
        "name": "Nuweiba",
        "styleUrl": "#landpoint0033200142",
        "label-opacity": 1,
        "label-color": "#80ff07",
        "label-scale": 3,
        "icon-opacity": 1,
        "icon-color": "#fc0107",
        "icon-scale": 2,
        "icon-offset": [
          32,
          1
        ],
        "icon-offset-units": [
          "pixels",
          "pixels"
        ],
        "icon": "http://maps.google.com/mapfiles/kml/paddle/red-circle.png",
        "kml": {
          "folderIds": [
            "folder-0001",
            "folder-0002"
          ],
          "folderPath": [
            "035_Exodus12_1-12_20",
            "Sinai"
          ],
          "sourceOrder": 10,
          "visibility": null,
          "initiallyVisible": true
        }
      },
      "id": "feature-0008"
    },
    {
      "type": "Feature",
      "geometry": {
        "type": "Polygon",
        "coordinates": [
          [
            [
              31.56946,
              30.86821,
              0
            ],
            [
              31.44489,
              30.83224,
              0
            ],
            [
              31.40337,
              30.72432,
              0
            ],
            [
              31.40337,
              30.47251,
              0
            ],
            [
              31.40337,
              30.43654,
              0
            ],
            [
              31.40337,
              30.40057,
              0
            ],
            [
              31.61098,
              30.32862,
              0
            ],
            [
              31.6525,
              30.32862,
              0
            ],
            [
              31.69401999999999,
              30.32862,
              0
            ],
            [
              31.73555,
              30.32862,
              0
            ],
            [
              31.77707,
              30.32862,
              0
            ],
            [
              31.81859,
              30.32862,
              0
            ],
            [
              31.98468,
              30.40057,
              0
            ],
            [
              32.15077,
              30.68835,
              0
            ],
            [
              32.15077,
              30.72432,
              0
            ],
            [
              32.10925,
              30.83224,
              0
            ],
            [
              32.06772,
              30.94015,
              0
            ],
            [
              32.0262,
              30.94015,
              0
            ],
            [
              31.98468,
              30.94015,
              0
            ],
            [
              31.90164,
              30.94015,
              0
            ],
            [
              31.81859,
              30.94015,
              0
            ],
            [
              31.56946,
              30.86821,
              0
            ]
          ]
        ]
      },
      "properties": {
        "name": "Goshen",
        "open": "1",
        "styleUrl": "#landisobands2252222223",
        "fill-opacity": 0.5019607843137255,
        "fill": "#20ffff",
        "stroke-width": 2,
        "kml": {
          "folderIds": [
            "folder-0001"
          ],
          "folderPath": [
            "035_Exodus12_1-12_20"
          ],
          "sourceOrder": 11,
          "visibility": null,
          "initiallyVisible": true
        }
      },
      "id": "feature-0009"
    }
  ],
  "layerTree": {
    "schemaVersion": 1,
    "root": {
      "type": "root",
      "id": "root",
      "name": "035_Exodus12_1-12_20.kmz",
      "sourceOrder": 0,
      "visibility": null,
      "initiallyVisible": true,
      "open": null,
      "children": [
        {
          "type": "folder",
          "id": "folder-0001",
          "name": "035_Exodus12_1-12_20",
          "sourceOrder": 1,
          "visibility": null,
          "initiallyVisible": true,
          "open": null,
          "children": [
            {
              "type": "feature",
              "id": "feature-0001",
              "name": "King's Highway",
              "sourceOrder": 2,
              "visibility": null,
              "initiallyVisible": true,
              "geometryType": "LineString"
            },
            {
              "type": "feature",
              "id": "feature-0002",
              "name": "Via Maris Route",
              "sourceOrder": 3,
              "visibility": null,
              "initiallyVisible": true,
              "geometryType": "LineString"
            },
            {
              "type": "feature",
              "id": "feature-0003",
              "name": "Rameses",
              "sourceOrder": 4,
              "visibility": null,
              "initiallyVisible": true,
              "geometryType": "Point"
            },
            {
              "type": "feature",
              "id": "feature-0004",
              "name": "Succoth",
              "sourceOrder": 5,
              "visibility": null,
              "initiallyVisible": true,
              "geometryType": "Point"
            },
            {
              "type": "folder",
              "id": "folder-0002",
              "name": "Sinai",
              "sourceOrder": 6,
              "visibility": null,
              "initiallyVisible": true,
              "open": null,
              "children": [
                {
                  "type": "feature",
                  "id": "feature-0005",
                  "name": "Sinai (Jabal Maqla)",
                  "sourceOrder": 7,
                  "visibility": null,
                  "initiallyVisible": true,
                  "geometryType": "Point"
                },
                {
                  "type": "feature",
                  "id": "feature-0006",
                  "name": "Sinai / Jebel Musa",
                  "sourceOrder": 8,
                  "visibility": null,
                  "initiallyVisible": true,
                  "geometryType": "Point"
                },
                {
                  "type": "feature",
                  "id": "feature-0007",
                  "name": "Gulf of Suez",
                  "sourceOrder": 9,
                  "visibility": null,
                  "initiallyVisible": true,
                  "geometryType": "Point"
                },
                {
                  "type": "feature",
                  "id": "feature-0008",
                  "name": "Nuweiba",
                  "sourceOrder": 10,
                  "visibility": null,
                  "initiallyVisible": true,
                  "geometryType": "Point"
                }
              ]
            },
            {
              "type": "feature",
              "id": "feature-0009",
              "name": "Goshen",
              "sourceOrder": 11,
              "visibility": null,
              "initiallyVisible": true,
              "geometryType": "Polygon"
            }
          ]
        }
      ]
    }
  }
}
