{
  "type": "FeatureCollection",
  "features": [
    {
      "type": "Feature",
      "geometry": {
        "type": "Point",
        "coordinates": [
          35.105336,
          31.556536,
          0
        ]
      },
      "properties": {
        "name": "Mamre",
        "visibility": false,
        "open": "1",
        "styleUrl": "#landpoint003318",
        "icon-opacity": 1,
        "icon-color": "#21ff06",
        "icon-scale": 0.75,
        "icon": "https://maps.google.com/mapfiles/kml/paddle/red-circle.png",
        "kml": {
          "folderIds": [
            "folder-0001"
          ],
          "folderPath": [
            "009_Genesis17-19"
          ],
          "sourceOrder": 2,
          "visibility": false,
          "initiallyVisible": false
        }
      },
      "id": "feature-0001"
    },
    {
      "type": "Feature",
      "geometry": {
        "type": "Point",
        "coordinates": [
          35.53421930440056,
          31.25391144223509,
          0
        ]
      },
      "properties": {
        "name": "Bab edh-Dhra (Sodom)",
        "visibility": false,
        "styleUrl": "#msn_A0",
        "icon-scale": 1.1,
        "icon-offset": [
          32,
          1
        ],
        "icon-offset-units": [
          "pixels",
          "pixels"
        ],
        "icon": "http://maps.google.com/mapfiles/kml/paddle/A.png",
        "kml": {
          "folderIds": [
            "folder-0001"
          ],
          "folderPath": [
            "009_Genesis17-19"
          ],
          "sourceOrder": 3,
          "visibility": false,
          "initiallyVisible": false
        }
      },
      "id": "feature-0002"
    },
    {
      "type": "Feature",
      "geometry": {
        "type": "Point",
        "coordinates": [
          35.52895554935969,
          31.13140129623825,
          0
        ]
      },
      "properties": {
        "name": "Numeira (Gomorrah)",
        "visibility": false,
        "styleUrl": "#msn_A0",
        "icon-scale": 1.1,
        "icon-offset": [
          32,
          1
        ],
        "icon-offset-units": [
          "pixels",
          "pixels"
        ],
        "icon": "http://maps.google.com/mapfiles/kml/paddle/A.png",
        "kml": {
          "folderIds": [
            "folder-0001"
          ],
          "folderPath": [
            "009_Genesis17-19"
          ],
          "sourceOrder": 4,
          "visibility": false,
          "initiallyVisible": false
        }
      },
      "id": "feature-0003"
    },
    {
      "type": "Feature",
      "geometry": {
        "type": "Point",
        "coordinates": [
          35.45725616294363,
          30.94019317261294,
          0
        ]
      },
      "properties": {
        "name": "Feifa (Admah)",
        "visibility": false,
        "styleUrl": "#msn_A0",
        "icon-scale": 1.1,
        "icon-offset": [
          32,
          1
        ],
        "icon-offset-units": [
          "pixels",
          "pixels"
        ],
        "icon": "http://maps.google.com/mapfiles/kml/paddle/A.png",
        "kml": {
          "folderIds": [
            "folder-0001"
          ],
          "folderPath": [
            "009_Genesis17-19"
          ],
          "sourceOrder": 5,
          "visibility": false,
          "initiallyVisible": false
        }
      },
      "id": "feature-0004"
    },
    {
      "type": "Feature",
      "geometry": {
        "type": "Point",
        "coordinates": [
          35.43709999946339,
          30.87770000023973,
          0
        ]
      },
      "properties": {
        "name": "Khanazir (Zeboiim)",
        "visibility": false,
        "styleUrl": "#msn_A0",
        "icon-scale": 1.1,
        "icon-offset": [
          32,
          1
        ],
        "icon-offset-units": [
          "pixels",
          "pixels"
        ],
        "icon": "http://maps.google.com/mapfiles/kml/paddle/A.png",
        "kml": {
          "folderIds": [
            "folder-0001"
          ],
          "folderPath": [
            "009_Genesis17-19"
          ],
          "sourceOrder": 6,
          "visibility": false,
          "initiallyVisible": false
        }
      },
      "id": "feature-0005"
    },
    {
      "type": "Feature",
      "geometry": {
        "type": "Point",
        "coordinates": [
          35.48734298334271,
          31.0379453769258,
          0
        ]
      },
      "properties": {
        "name": "Safi (Zoar)",
        "visibility": false,
        "styleUrl": "#msn_A0",
        "icon-scale": 1.1,
        "icon-offset": [
          32,
          1
        ],
        "icon-offset-units": [
          "pixels",
          "pixels"
        ],
        "icon": "http://maps.google.com/mapfiles/kml/paddle/A.png",
        "kml": {
          "folderIds": [
            "folder-0001"
          ],
          "folderPath": [
            "009_Genesis17-19"
          ],
          "sourceOrder": 7,
          "visibility": false,
          "initiallyVisible": false
        }
      },
      "id": "feature-0006"
    },
    {
      "type": "Feature",
      "geometry": {
        "type": "Polygon",
        "coordinates": [
          [
            [
              35.4751803428148,
              31.02120296581815,
              0
            ],
            [
              35.47438428457613,
              31.02051637602336,
              0
            ],
            [
              35.4747771212181,
              31.01977498892493,
              0
            ],
            [
              35.47419497116208,
              31.01839652537974,
              0
            ],
            [
              35.47361303636819,
              31.01684531086974,
              0
            ],
            [
              35.47364916343556,
              31.0155240983741,
              0
            ],
            [
              35.47374605087361,
              31.01384234144732,
              0
            ],
            [
              35.47541316308315,
              31.01423535878972,
              0
            ],
            [
              35.47637766275405,
              31.01415602565248,
              0
            ],
            [
              35.47743106451185,
              31.01468626960646,
              0
            ],
            [
              35.47933306218333,
              31.01471280477667,
              0
            ],
            [
              35.48116328202525,
              31.01523204391957,
              0
            ],
            [
              35.48104358390122,
              31.01471066068094,
              0
            ],
            [
              35.4823556439509,
              31.01499333159843,
              0
            ],
            [
              35.48288004872283,
              31.01598439977797,
              0
            ],
            [
              35.47927663008114,
              31.01745460932333,
              0
            ],
            [
              35.47868137317485,
              31.01822154982942,
              0
            ],
            [
              35.47745272172973,
              31.01969808195593,
              0
            ],
            [
              35.47711927969079,
              31.02017569745733,
              0
            ],
            [
              35.47581390815334,
              31.02099368661088,
              0
            ],
            [
              35.4751803428148,
              31.02120296581815,
              0
            ]
          ]
        ]
      },
      "properties": {
        "name": "Safi Cemetery",
        "visibility": false,
        "styleUrl": "#msn_ylw-pushpin110",
        "fill-opacity": 0.5019607843137255,
        "fill": "#fc02ff",
        "stroke-width": 2,
        "icon-scale": 1.1,
        "icon-offset": [
          20,
          2
        ],
        "icon-offset-units": [
          "pixels",
          "pixels"
        ],
        "icon": "http://maps.google.com/mapfiles/kml/pushpin/ylw-pushpin.png",
        "kml": {
          "folderIds": [
            "folder-0001"
          ],
          "folderPath": [
            "009_Genesis17-19"
          ],
          "sourceOrder": 8,
          "visibility": false,
          "initiallyVisible": false
        }
      },
      "id": "feature-0007"
    },
    {
      "type": "Feature",
      "geometry": {
        "type": "Point",
        "coordinates": [
          35.50275739162419,
          31.04679275249743,
          0
        ]
      },
      "properties": {
        "name": "Lot's Cave",
        "visibility": false,
        "styleUrl": "#msn_A",
        "icon-scale": 1.1,
        "icon-offset": [
          32,
          1
        ],
        "icon-offset-units": [
          "pixels",
          "pixels"
        ],
        "icon": "http://maps.google.com/mapfiles/kml/paddle/A.png",
        "kml": {
          "folderIds": [
            "folder-0001"
          ],
          "folderPath": [
            "009_Genesis17-19"
          ],
          "sourceOrder": 9,
          "visibility": false,
          "initiallyVisible": false
        }
      },
      "id": "feature-0008"
    }
  ],
  "layerTree": {
    "schemaVersion": 1,
    "root": {
      "type": "root",
      "id": "root",
      "name": "009_Genesis17-19.kmz",
      "sourceOrder": 0,
      "visibility": null,
      "initiallyVisible": true,
      "open": null,
      "children": [
        {
          "type": "folder",
          "id": "folder-0001",
          "name": "009_Genesis17-19",
          "sourceOrder": 1,
          "visibility": false,
          "initiallyVisible": false,
          "open": null,
          "children": [
            {
              "type": "feature",
              "id": "feature-0001",
              "name": "Mamre",
              "sourceOrder": 2,
              "visibility": false,
              "initiallyVisible": false,
              "geometryType": "Point"
            },
            {
              "type": "feature",
              "id": "feature-0002",
              "name": "Bab edh-Dhra (Sodom)",
              "sourceOrder": 3,
              "visibility": false,
              "initiallyVisible": false,
              "geometryType": "Point"
            },
            {
              "type": "feature",
              "id": "feature-0003",
              "name": "Numeira (Gomorrah)",
              "sourceOrder": 4,
              "visibility": false,
              "initiallyVisible": false,
              "geometryType": "Point"
            },
            {
              "type": "feature",
              "id": "feature-0004",
              "name": "Feifa (Admah)",
              "sourceOrder": 5,
              "visibility": false,
              "initiallyVisible": false,
              "geometryType": "Point"
            },
            {
              "type": "feature",
              "id": "feature-0005",
              "name": "Khanazir (Zeboiim)",
              "sourceOrder": 6,
              "visibility": false,
              "initiallyVisible": false,
              "geometryType": "Point"
            },
            {
              "type": "feature",
              "id": "feature-0006",
              "name": "Safi (Zoar)",
              "sourceOrder": 7,
              "visibility": false,
              "initiallyVisible": false,
              "geometryType": "Point"
            },
            {
              "type": "feature",
              "id": "feature-0007",
              "name": "Safi Cemetery",
              "sourceOrder": 8,
              "visibility": false,
              "initiallyVisible": false,
              "geometryType": "Polygon"
            },
            {
              "type": "feature",
              "id": "feature-0008",
              "name": "Lot's Cave",
              "sourceOrder": 9,
              "visibility": false,
              "initiallyVisible": false,
              "geometryType": "Point"
            }
          ]
        }
      ]
    }
  }
}
